[
    {
        "Altitude(m)": 612513.9098086571,
        "Argument of Periapsis(deg)": 0.0,
        "Eccentricity": 0.0,
        "Inclination(deg)": 60.0,
        "Latitude(deg)": -28.135892720040182,
        "Longitude(deg)": 152.91307041899495,
        "Mean Anomaly(deg)": 212.7273,
        "RAAN(deg)": 55.00000000000001,
        "Satellite Name": "Test1 255",
        "Satellite Number": 255,
        "Semi-Major Axis(m)": 6980739.136638005,
        "Time(s)": 0
    },
    {
        "Altitude(m)": 612708.2776901883,
        "Argument of Periapsis(deg)": 0.00010418945913296404,
        "Eccentricity": 0.0,
        "Inclination(deg)": 60.0,
        "Latitude(deg)": -28.64763241030234,
        "Longitude(deg)": 153.27029959869867,
        "Mean Anomaly(deg)": 213.34740614546183,
        "RAAN(deg)": 54.999579950860266,
        "Satellite Name": "Test1 255",
        "Satellite Number": 255,
        "Semi-Major Axis(m)": 6980739.136638005,
        "Time(s)": 10
    }
]